OBJECT_NAME,OBJECT_ID,EPOCH,MEAN_MOTION,ECCENTRICITY,INCLINATION,RA_OF_ASC_NODE,ARG_OF_PERICENTER,MEAN_ANOMALY,EPHEMERIS_TYPE,CLASSIFICATION_TYPE,NORAD_CAT_ID,ELEMENT_SET_NO,REV_AT_EPOCH,BSTAR,MEAN_MOTION_DOT,MEAN_MOTION_DDOT
NIMIQ 2,2002-062A,2026-06-26T15:27:30.335904,1.00272427,.0005795,9.4671,56.7999,33.3539,307.3033,0,U,27632,999,4427,0,-.67E-6,0
USA 167,2003-008A,2026-06-26T14:53:14.100576,1.00272852,.00038699,10.9796,43.3252,319.9211,13.1139,0,U,27691,999,686,0,.4E-7,0
USA 169 (MILSTAR-2 4),2003-012A,2026-06-26T21:49:48.823104,1.00272560,.0100729,12.3638,29.7628,9.7337,355.1429,0,U,27711,999,3305,0,-.265E-5,0
ASIASAT 4,2003-014A,2026-06-26T19:57:21.867840,1.00270817,.00028237,4.7280,75.6276,24.2749,261.9342,0,U,27718,999,4539,0,-.215E-5,0
HELLAS-SAT 2,2003-020A,2026-06-26T22:46:14.895264,1.00272426,.0003124,7.3784,67.7695,43.0189,135.8083,0,U,27811,999,4294,0,-.8E-6,0
THURAYA-2,2003-026A,2026-06-27T04:09:40.249728,1.00273466,.000272,8.8548,31.9316,15.3626,334.4268,0,U,27825,999,8444,0,.128E-5,0
OPTUS C1,2003-028B,2026-06-26T19:24:21.668832,1.00272354,.00058222,6.9133,69.2956,21.6801,270.8059,0,U,27831,999,5315,0,-.146E-5,0
USA 170,2003-040A,2026-06-24T19:36:12.072096,1.00271103,.00021206,10.5162,47.8771,60.7420,122.5828,0,U,27875,999,3307,0,.125E-5,0
GALAXY 13 (HORIZONS-1),2003-044A,2026-06-27T03:14:21.584256,1.00269829,.0001721,1.4443,83.7385,4.2564,85.8326,0,U,27954,999,4667,0,.143E-5,0
YAMAL 202,2003-053A,2026-06-26T14:09:49.332384,1.00271061,.000314,6.3670,70.8248,14.2954,205.5801,0,U,28089,999,8279,0,-.76E-6,0
UFO 11 (USA 174),2003-057A,2026-06-26T16:20:02.133600,1.00271668,.00023477,8.9522,33.7799,71.1193,130.5155,0,U,28117,999,8254,0,-.102E-5,0
USA 176 (DSP 22),2004-004A,2026-06-26T09:41:39.074208,1.00274016,.000119,12.0745,26.0034,323.7208,20.9389,0,U,28158,999,3302,0,-.296E-5,0
ABS-4 (MOBISAT-1),2004-007A,2026-06-26T19:00:38.492352,1.00267804,.0005104,6.0663,71.8927,21.8157,167.3550,0,U,28184,999,5243,0,.45E-6,0
INTELSAT 10-02,2004-022A,2026-06-27T03:56:48.981984,1.00270753,.0000178,0.0268,287.5242,181.8453,224.1091,0,U,28358,999,8065,0,0,0
ANIK F2,2004-027A,2026-06-27T03:43:38.676864,1.00272257,.0004282,3.3127,79.3187,14.7269,126.0060,0,U,28378,999,4136,0,-.41E-6,0
AMC-15,2004-041A,2026-06-27T03:27:11.853216,1.00272360,.0002528,0.0217,32.6628,56.7687,132.5724,0,U,28446,999,7940,0,-.77E-6,0
NSS-10,2005-003A,2026-06-27T04:50:14.682048,1.00272315,.0003172,6.4740,70.3342,17.5453,222.5435,0,U,28526,999,5325,0,-.246E-5,0
INMARSAT 4-F1,2005-009A,2026-06-26T21:57:18.107424,1.00272664,.0002986,5.1801,42.7737,53.4440,326.2544,0,U,28628,999,7777,0,.39E-6,0
DIRECTV 8,2005-019A,2026-06-27T01:40:28.590240,1.00271711,.00033,0.0220,69.5577,30.1755,81.5207,0,U,28659,999,7717,0,.13E-6,0
GALAXY 28 (G-28),2005-022A,2026-06-27T04:47:35.210112,1.00270977,.0002275,3.3235,78.8111,17.0371,224.2616,0,U,28702,999,5207,0,-.192E-5,0
THAICOM 4,2005-028A,2026-06-27T01:05:49.069248,1.00270992,.0002007,0.2706,85.8028,358.8000,326.5193,0,U,28786,999,5234,0,-.351E-5,0
ANIK F1R,2005-036A,2026-06-27T05:49:12.876960,1.00272177,.0004493,4.3379,76.4601,7.1420,171.7518,0,U,28868,999,4655,0,-.68E-6,0
SYRACUSE 3A,2005-041B,2026-06-26T20:38:38.746752,1.00272197,.0002801,4.6661,75.7197,14.6770,180.8826,0,U,28885,999,7584,0,.136E-5,0
INMARSAT 4-F2,2005-044A,2026-06-26T23:29:59.269344,1.00271872,.0003299,5.1075,43.6835,41.8800,325.5197,0,U,28899,999,7562,0,-.254E-5,0
METEOSAT-9 (MSG-2),2005-049B,2026-06-26T19:36:46.275264,1.00277622,.00019886,9.3827,54.0739,356.9985,203.7944,0,U,28912,999,709,0,.126E-5,0
EUTELSAT 174A,2005-052A,2026-06-27T01:21:25.074144,1.00274579,.0006573,4.2441,76.4106,17.2535,15.8597,0,U,28924,999,5243,0,.17E-6,0
ECHOSTAR 10,2006-003A,2026-06-27T03:25:41.997216,1.00271941,.0002311,0.0185,339.4123,67.5157,169.5658,0,U,28935,999,7456,0,-.44E-6,0
SPAINSAT,2006-007A,2026-06-26T07:43:05.042496,1.00271612,.00051139,0.5868,86.4036,6.7366,266.9137,0,U,28945,999,7431,0,-.206E-5,0
JCSAT-5A,2006-010A,2026-06-27T01:09:26.220960,1.00272026,.0002245,1.1349,84.1318,359.9071,340.5357,0,U,29045,999,7386,0,-.317E-5,0
ASTRA 1KR,2006-012A,2026-06-27T04:02:33.432000,1.00269535,.0003834,0.4994,83.2517,3.6770,268.0089,0,U,29055,999,4579,0,.13E-5,0
GALAXY 16 (G-16),2006-023A,2026-06-27T03:28:49.198368,1.00272113,.0002888,0.0433,124.0845,320.8515,143.5175,0,U,29236,999,7307,0,-.115E-5,0
EUTELSAT 33F,2006-032A,2026-06-27T04:06:33.050304,1.00270314,.0003773,1.6870,82.1474,9.9237,277.9270,0,U,29270,999,4740,0,.166E-5,0
